{
  "type": "FeatureCollection",
  "features": [
    {
      "type": "Feature",
      "properties": {
        "norad_id": 35434,
        "name": "COSMOS 2251 DEB",
        "group": "cosmos-2251-debris",
        "lat": 43.856753176651814,
        "lon": 4.13661125312511,
        "alt_km": 846.3867111159361,
        "timestamp": "2025-12-20T05:41:50.427379+00:00",
        "meta_object_name": "COSMOS 2251 DEB",
        "meta_object_id": "1993-036AKC",
        "meta_epoch": "2025-12-13T21:29:58.278624",
        "meta_mean_motion": 14.25692247,
        "meta_eccentricity": 0.00874643,
        "meta_inclination": 74.0404,
        "meta_ra_of_asc_node": 211.5388,
        "meta_arg_of_pericenter": 282.0357,
        "meta_mean_anomaly": 77.0999,
        "meta_ephemeris_type": 0,
        "meta_classification_type": "U",
        "meta_norad_cat_id": 35434,
        "meta_element_set_no": 999,
        "meta_rev_at_epoch": 86134,
        "meta_bstar": 0.00076141319,
        "meta_mean_motion_dot": 1.854e-05,
        "meta_mean_motion_ddot": 0,
        "tle_line1": "1 35434U 93036AKC 25347.89581341  .00001854  00000+0  76141-3 0  9999",
        "tle_line2": "2 35434  74.0404 211.5388 0087464 282.0357  77.0999 14.25692247861349"
      },
      "geometry": {
        "type": "Point",
        "coordinates": [
          4.13661125312511,
          43.856753176651814
        ]
      }
    },
    {
      "type": "Feature",
      "properties": {
        "norad_id": 35435,
        "name": "COSMOS 2251 DEB",
        "group": "cosmos-2251-debris",
        "lat": -44.133656683212614,
        "lon": 73.1573416167195,
        "alt_km": 643.053591080301,
        "timestamp": "2025-12-20T05:41:50.427389+00:00",
        "meta_object_name": "COSMOS 2251 DEB",
        "meta_object_id": "1993-036AKD",
        "meta_epoch": "2025-12-18T13:24:14.493312",
        "meta_mean_motion": 14.78644291,
        "meta_eccentricity": 0.00073996,
        "meta_inclination": 74.0108,
        "meta_ra_of_asc_node": 92.6132,
        "meta_arg_of_pericenter": 188.8212,
        "meta_mean_anomaly": 191.4596,
        "meta_ephemeris_type": 0,
        "meta_classification_type": "U",
        "meta_norad_cat_id": 35435,
        "meta_element_set_no": 999,
        "meta_rev_at_epoch": 87625,
        "meta_bstar": 0.0017393261,
        "meta_mean_motion_dot": 0.0001274,
        "meta_mean_motion_ddot": 0,
        "tle_line1": "1 35435U 93036AKD 25352.55850108  .00012740  00000+0  17393-2 0  9998",
        "tle_line2": "2 35435  74.0108  92.6132 0007399 188.8212 191.4596 14.78644291876252"
      },
      "geometry": {
        "type": "Point",
        "coordinates": [
          73.1573416167195,
          -44.133656683212614
        ]
      }
    },
    {
      "type": "Feature",
      "properties": {
        "norad_id": 35439,
        "name": "COSMOS 2251 DEB",
        "group": "cosmos-2251-debris",
        "lat": 73.9894109428594,
        "lon": -145.17531495804405,
        "alt_km": 1078.369538125322,
        "timestamp": "2025-12-20T05:41:50.427399+00:00",
        "meta_object_name": "COSMOS 2251 DEB",
        "meta_object_id": "1993-036AKH",
        "meta_epoch": "2025-12-17T04:00:48.812832",
        "meta_mean_motion": 13.92829249,
        "meta_eccentricity": 0.02424604,
        "meta_inclination": 74.0187,
        "meta_ra_of_asc_node": 127.1529,
        "meta_arg_of_pericenter": 295.4748,
        "meta_mean_anomaly": 245.9503,
        "meta_ephemeris_type": 0,
        "meta_classification_type": "U",
        "meta_norad_cat_id": 35439,
        "meta_element_set_no": 999,
        "meta_rev_at_epoch": 84022,
        "meta_bstar": 0.0013909461,
        "meta_mean_motion_dot": 2.269e-05,
        "meta_mean_motion_ddot": 0,
        "tle_line1": "1 35439U 93036AKH 25351.16723163  .00002269  00000+0  13909-2 0  9992",
        "tle_line2": "2 35439  74.0187 127.1529 0242460 295.4748 245.9503 13.92829249840220"
      },
      "geometry": {
        "type": "Point",
        "coordinates": [
          -145.17531495804405,
          73.9894109428594
        ]
      }
    },
    {
      "type": "Feature",
      "properties": {
        "norad_id": 35440,
        "name": "COSMOS 2251 DEB",
        "group": "cosmos-2251-debris",
        "lat": 48.57865322840346,
        "lon": -147.9404497746488,
        "alt_km": 650.5328374748397,
        "timestamp": "2025-12-20T05:41:50.427410+00:00",
        "meta_object_name": "COSMOS 2251 DEB",
        "meta_object_id": "1993-036AKJ",
        "meta_epoch": "2025-12-17T20:15:19.490976",
        "meta_mean_motion": 14.68838958,
        "meta_eccentricity": 0.00695054,
        "meta_inclination": 74.0134,
        "meta_ra_of_asc_node": 197.7346,
        "meta_arg_of_pericenter": 337.3687,
        "meta_mean_anomaly": 22.4422,
        "meta_ephemeris_type": 0,
        "meta_classification_type": "U",
        "meta_norad_cat_id": 35440,
        "meta_element_set_no": 999,
        "meta_rev_at_epoch": 68840,
        "meta_bstar": 0.00030670457,
        "meta_mean_motion_dot": 1.824e-05,
        "meta_mean_motion_ddot": 0,
        "tle_line1": "1 35440U 93036AKJ 25351.84397559  .00001824  00000+0  30670-3 0  9996",
        "tle_line2": "2 35440  74.0134 197.7346 0069505 337.3687  22.4422 14.68838958688408"
      },
      "geometry": {
        "type": "Point",
        "coordinates": [
          -147.9404497746488,
          48.57865322840346
        ]
      }
    },
    {
      "type": "Feature",
      "properties": {
        "norad_id": 35441,
        "name": "COSMOS 2251 DEB",
        "group": "cosmos-2251-debris",
        "lat": -16.857950536478985,
        "lon": 108.76691357807113,
        "alt_km": 664.6314518681111,
        "timestamp": "2025-12-20T05:41:50.427420+00:00",
        "meta_object_name": "COSMOS 2251 DEB",
        "meta_object_id": "1993-036AKK",
        "meta_epoch": "2025-12-15T03:19:30.492768",
        "meta_mean_motion": 14.62637993,
        "meta_eccentricity": 0.00365994,
        "meta_inclination": 74.1346,
        "meta_ra_of_asc_node": 293.5313,
        "meta_arg_of_pericenter": 189.4895,
        "meta_mean_anomaly": 170.5586,
        "meta_ephemeris_type": 0,
        "meta_classification_type": "U",
        "meta_norad_cat_id": 35441,
        "meta_element_set_no": 999,
        "meta_rev_at_epoch": 87465,
        "meta_bstar": 0.00095338273,
        "meta_mean_motion_dot": 4.868e-05,
        "meta_mean_motion_ddot": 0,
        "tle_line1": "1 35441U 93036AKK 25349.13854737  .00004868  00000+0  95338-3 0  9995",
        "tle_line2": "2 35441  74.1346 293.5313 0036599 189.4895 170.5586 14.62637993874658"
      },
      "geometry": {
        "type": "Point",
        "coordinates": [
          108.76691357807113,
          -16.857950536478985
        ]
      }
    },
    {
      "type": "Feature",
      "properties": {
        "norad_id": 35442,
        "name": "COSMOS 2251 DEB",
        "group": "cosmos-2251-debris",
        "lat": -46.52169628230643,
        "lon": 66.67569620776746,
        "alt_km": 621.950217247866,
        "timestamp": "2025-12-20T05:41:50.427430+00:00",
        "meta_object_name": "COSMOS 2251 DEB",
        "meta_object_id": "1993-036AKL",
        "meta_epoch": "2025-12-17T00:17:27.406464",
        "meta_mean_motion": 14.84602937,
        "meta_eccentricity": 0.00037296,
        "meta_inclination": 74.0275,
        "meta_ra_of_asc_node": 90.6565,
        "meta_arg_of_pericenter": 70.0102,
        "meta_mean_anomaly": 290.1478,
        "meta_ephemeris_type": 0,
        "meta_classification_type": "U",
        "meta_norad_cat_id": 35442,
        "meta_element_set_no": 999,
        "meta_rev_at_epoch": 87416,
        "meta_bstar": 0.0016861079,
        "meta_mean_motion_dot": 0.00014243,
        "meta_mean_motion_ddot": 0,
        "tle_line1": "1 35442U 93036AKL 25351.01212276  .00014243  00000+0  16861-2 0  9993",
        "tle_line2": "2 35442  74.0275  90.6565 0003729  70.0102 290.1478 14.84602937874168"
      },
      "geometry": {
        "type": "Point",
        "coordinates": [
          66.67569620776746,
          -46.52169628230643
        ]
      }
    },
    {
      "type": "Feature",
      "properties": {
        "norad_id": 35443,
        "name": "COSMOS 2251 DEB",
        "group": "cosmos-2251-debris",
        "lat": -39.37160008747355,
        "lon": -57.25080192359942,
        "alt_km": 618.7267234420506,
        "timestamp": "2025-12-20T05:41:50.427440+00:00",
        "meta_object_name": "COSMOS 2251 DEB",
        "meta_object_id": "1993-036AKM",
        "meta_epoch": "2025-12-19T13:50:47.178816",
        "meta_mean_motion": 14.97233241,
        "meta_eccentricity": 0.007292,
        "meta_inclination": 73.988,
        "meta_ra_of_asc_node": 317.7188,
        "meta_arg_of_pericenter": 97.8759,
        "meta_mean_anomaly": 263.0711,
        "meta_ephemeris_type": 0,
        "meta_classification_type": "U",
        "meta_norad_cat_id": 35443,
        "meta_element_set_no": 999,
        "meta_rev_at_epoch": 86980,
        "meta_bstar": 0.0025283,
        "meta_mean_motion_dot": 0.00031007,
        "meta_mean_motion_ddot": 0,
        "tle_line1": "1 35443U 93036AKM 25353.57693494  .00031007  00000+0  25283-2 0  9997",
        "tle_line2": "2 35443  73.9880 317.7188 0072920  97.8759 263.0711 14.97233241869803"
      },
      "geometry": {
        "type": "Point",
        "coordinates": [
          -57.25080192359942,
          -39.37160008747355
        ]
      }
    }
  ]
}